KUIPER-00165            
1 65778U 25217S   26004.66670139  .00007285  00000+0  75500-3 0  9991
2 65778  51.8962 319.2144 0005422 132.2657 134.1309 14.90892755  5533
KUIPER-00166            
1 65779U 25217T   26004.66670139  .00067686  00000+0  21872-2 0  9995
2 65779  51.8738 313.1738 0004746 100.5389 352.3226 15.31457251  4035
KUIPER-00167            
1 65780U 25217U   26004.28947980  .00102742  00000+0  13735-1 0  9997
2 65780  51.8989 330.3522 0001040 130.7485 229.3567 14.78576480 15302
KUIPER-00168            
1 65781U 25217V   26004.66670139  .00047519  00000+0  25615-2 0  9990
2 65781  51.8857 314.2300 0001351 115.4941 221.0081 15.14319978  2870
KUIPER-00169            
1 65782U 25217W   26004.66670139 -.01020811  00000+0 -91063-1 0  9999
2 65782  51.8927 317.1422 0005175 100.0319 258.6167 14.98458901  5609
KUIPER-00170            
1 65783U 25217X   26004.66670139  .00004360  00000+0  54119-3 0  9991
2 65783  51.8993 321.3896 0007776  91.3843 333.2621 14.84338321  5566
KUIPER-00171            
1 65784U 25217Y   26004.66670139  .00141418  00000+0  92467-3 0  9996
2 65784  51.8539 299.3944 0011078 108.5431 159.4023 15.74795325  4918
KUIPER-00172            
1 65785U 25217Z   26004.56961028  .00025808  00000+0  11826-2 0  9999
2 65785  51.8772 315.6244 0005438 111.4437 248.7123 15.20293542 15533
KUIPER-00173            
1 65786U 25217AA  26004.66670139 -.00937802  00000+0 -80552-1 0  9990
2 65786  51.8937 317.2486 0001174 167.8302   6.2751 14.99693339  3682
KUIPER-00174            
1 65787U 25217AB  26004.66670139 -.01158577  00000+0 -68507-1 0  9992
2 65787  51.8807 314.4123 0000943 141.3824  26.7520 15.13987055  5912
KUIPER-00176            
1 65788U 25217AC  26004.66670139  .00009864  00000+0  13199-2 0  9992
2 65788  51.9006 326.2121 0001453  96.9775 272.4474 14.79969332  3556
KUIPER-00101            
1 65947U 25228A   26004.13673340  .00008630  00000+0  11579-2 0  9990
2 65947  51.9000 286.0418 0000511  21.5044 338.5940 14.79990683 13675
KUIPER-00113            
1 65948U 25228B   26004.66670139  .00023033  00000+0  28074-2 0  9994
2 65948  51.8975 278.8109 0002100 124.1480 283.8195 14.83263735  5202
KUIPER-00117            
1 65949U 25228C   26004.66670139  .00018443  00000+0  24277-2 0  9995
2 65949  51.8978 281.2210 0001135 125.1847 164.7975 14.80172631  4395
KUIPER-00121            
1 65950U 25228D   26004.66670139  .00022960  00000+0  27533-2 0  9994
2 65950  51.8987 276.1405 0004491 126.6401 347.6605 14.83936610  3148
KUIPER-00122            
1 65951U 25228E   26004.03268046 -.00000154  00000+0  88540-5 0  9996
2 65951  51.9013 288.9946 0001516  78.8954 281.2179 14.79967311 13627
KUIPER-00123            
1 65952U 25228F   26004.20154842  .00000897  00000+0  14660-3 0  9997
2 65952  51.9004 288.2705 0001158 110.2995 249.8092 14.79962798 13642
KUIPER-00124            
1 65953U 25228G   26004.66670139  .00036236  00000+0  47604-2 0  9999
2 65953  51.8984 278.6998 0000761 101.1431 175.0431 14.79898857  5719
KUIPER-00125            
1 65954U 25228H   26004.66670139 -.00945239  00000+0 -33061-1 0  9995
2 65954  51.8817 269.7744 0003988 124.0709 212.6868 15.31907318  4488
KUIPER-00126            
1 65955U 25228J   26004.17054924  .00006144  00000+0  83351-3 0  9990
2 65955  51.9001 285.9147 0000562  81.5400 278.5626 14.79966808 13676
KUIPER-00127            
1 65956U 25228K   26002.01301876  .00020489  00000+0  17325-2 0  9998
2 65956  51.8967 291.4974 0006386 134.7476 225.4015 14.98006974 13416
KUIPER-00128            
1 65957U 25228L   26004.66670139 -.00379174  00000+0 -46688-1 0  9996
2 65957  51.9299 276.4157 0003470 144.6501  19.7960 14.84830449  5389
KUIPER-00129            
1 65958U 25228M   26004.66670139  .00047442  00000+0  34601-2 0  9998
2 65958  51.8887 272.5961 0001763  57.8589 351.5799 15.03247222  5904
KUIPER-00130            
1 65959U 25228N   26004.66670139 -.01751425  00000+0 -17592+0 0  9992
2 65959  51.8937 274.3099 0006068 123.5602 164.2975 14.94579085  5799
KUIPER-00134            
1 65960U 25228P   26004.10413309  .00049691  00000+0  13778-2 0  9994
2 65960  51.8769 272.6920 0007638  97.6766 262.5088 15.36421572 13851
KUIPER-00135            
1 65961U 25228Q   26004.66670139 -.00008470  00000+0 -75016-3 0  9998
2 65961  51.8956 274.5223 0005587 125.8072 300.9541 14.94687111  3386
KUIPER-00136            
1 65962U 25228R   26004.66670139 -.01653894  00000+0 -13205+0 0  9994
2 65962  51.8908 272.6444 0005736 116.3817 169.0831 15.03138062  3558
KUIPER-00137            
1 65963U 25228S   26004.66670139 -.01315637  00000+0 -80664-1 0  9990
2 65963  51.8890 271.3111 0005332 125.9754 191.3337 15.12566230  4084
KUIPER-00138            
1 65964U 25228T   26004.66670139 -.01915638  00000+0 -88542-1 0  9991
2 65964  51.8858 270.5057 0007509 121.1973 222.2012 15.22956372  5534
KUIPER-00140            
1 65965U 25228U   26004.66670139 -.01196498  00000+0 -75036-1 0  9991
2 65965  51.8861 271.6141 0006011 111.9014 348.4786 15.11957198  5876
KUIPER-00141            
1 65966U 25228V   26004.66670139 -.02194942  00000+0 -86462-1 0  9990
2 65966  51.8811 269.8552 0004147 135.0671 137.4664 15.28734657  5064
KUIPER-00146            
1 65967U 25228W   26004.66670139 -.00925207  00000+0 -43879-1 0  9990
2 65967  51.8861 270.4549 0005578 121.0911 210.2417 15.21401814  5554
KUIPER-00149            
1 65968U 25228X   26004.14712322  .00043843  00000+0  12057-2 0  9995
2 65968  51.8797 272.2434 0005242 101.2097 258.9479 15.36747255 13867
KUIPER-00154            
1 65969U 25228Y   26004.02241081  .00053058  00000+0  14600-2 0  9997
2 65969  51.8786 272.9046 0006810  91.1629 269.0138 15.36634506 13849
KUIPER-00157            
1 65970U 25228Z   26004.66670139 -.00435694  00000+0 -13353-1 0  9994
2 65970  51.8784 269.9340 0007083 121.7406 135.4255 15.35001072  5592
KUIPER-00144            
1 67133U 25301A   26004.61499610  .00023490  00000+0  67116-3 0  9990
2 67133  51.8712  14.8140 0006321 146.5526 213.5861 15.35869296  3884
KUIPER-00164            
1 67134U 25301B   26004.60632141  .00027717  00000+0  77448-3 0  9993
2 67134  51.8731  14.7583 0002995 127.3541 232.7719 15.36484366  4061
KUIPER-00175            
1 67135U 25301C   26004.60017431  .00032794  00000+0  89863-3 0  9998
2 67135  51.8742  14.7143 0002802  80.6785 279.4519 15.37005087  3957
KUIPER-00179            
1 67136U 25301D   26004.60450066  .00018467  00000+0  51871-3 0  9993
2 67136  51.8742  14.7443 0003387 107.9278 252.2078 15.36574841  4060
KUIPER-00181            
1 67137U 25301E   26004.62820045  .00028832  00000+0  84798-3 0  9995
2 67137  51.8647  14.8934 0010512 174.0415 186.0698 15.34811719  4043
KUIPER-00183            
1 67138U 25301F   26004.63207229  .00024551  00000+0  73069-3 0  9993
2 67138  51.8621  14.9153 0011339 175.3583 184.7509 15.34518910  4052
KUIPER-00184            
1 67139U 25301G   26004.62727590  .00024182  00000+0  71328-3 0  9997
2 67139  51.8636  14.8862 0009536 172.0106 188.1033 15.34827549  4169
KUIPER-00186            
1 67140U 25301H   26004.61988164  .00030584  00000+0  87849-3 0  9992
2 67140  51.8694  14.8438 0007863 158.9399 201.1912 15.35546955  3882
KUIPER-00187            
1 67141U 25301J   26004.61013367  .00034966  00000+0  98249-3 0  9991
2 67141  51.8720  14.7831 0004928 145.0018 215.1293 15.36184745  3886
KUIPER-00188            
1 67142U 25301K   26004.36070910  .00016238  00000+0  47462-3 0  9994
2 67142  51.8705  16.1079 0007496 163.7326 196.3901 15.35404837  3840
KUIPER-00191            
1 67143U 25301L   26004.61850979  .00027269  00000+0  78403-3 0  9999
2 67143  51.8684  14.8348 0006558 158.6353 201.4908 15.35585566  3914
KUIPER-00196            
1 67144U 25301M   26004.54276913  .00032484  00000+0  90875-3 0  9994
2 67144  51.8737  15.0812 0003856 120.8124 239.3243 15.36362763  3878
KUIPER-00204            
1 67145U 25301N   26004.58335648 -.00701952  00000+0 -22149-1 0  9992
2 67145  51.8760  14.8163 0004210  87.1950 164.4990 15.34782368  3982
KUIPER-00210            
1 67146U 25301P   26004.63084290  .00017653  00000+0  52721-3 0  9990
2 67146  51.8607  14.9056 0010407 179.4777 180.6221 15.34637391  4053
KUIPER-00221            
1 67147U 25301Q   26004.61147718  .00022160  00000+0  62895-3 0  9996
2 67147  51.8727  14.7914 0005017 140.2855 219.8500 15.36121271  3884
KUIPER-00232            
1 67148U 25301R   26004.59916083  .00035052  00000+0  96032-3 0  9997
2 67148  51.8740  14.7100 0002460  68.6079 291.5170 15.36978304  3884
KUIPER-00241            
1 67149U 25301S   26004.60494391  .00029063  00000+0  80856-3 0  9995
2 67149  51.8747  14.7455 0002737 115.7021 244.4248 15.36595378  4210
KUIPER-00245            
1 67150U 25301T   26004.58335648  .00023035  00000+0  69170-3 0  9992
2 67150  51.8735  14.9427 0005917 150.6820  43.5184 15.34318905  3367
KUIPER-00246            
1 67151U 25301U   26004.60859935  .00018481  00000+0  52314-3 0  9997
2 67151  51.8742  14.7715 0004015 138.2349 221.8944 15.36330501  3903
KUIPER-00247            
1 67152U 25301V   26004.43779733  .00001708  00000+0  62035-4 0  9992
2 67152  51.8630  15.8644 0011424 181.0995 178.9967 15.34242649  3852
KUIPER-00248            
1 67153U 25301W   26004.62445041  .00032392  00000+0  93869-3 0  9997
2 67153  51.8685  14.8729 0008983 168.8459 191.2728 15.35231149  4050
KUIPER-00249            
1 67154U 25301X   26004.62230403  .00024883  00000+0  72145-3 0  9992
2 67154  51.8664  14.8575 0008344 166.1147 194.0070 15.35362463  3888
KUIPER-00250            
1 67155U 25301Y   26004.61585779  .00028945  00000+0  82287-3 0  9992
2 67155  51.8723  14.8195 0006620 156.2655 203.8637 15.35907051  3912
KUIPER-00251            
1 67156U 25301Z   26004.62352027  .00025110  00000+0  73611-3 0  9994
2 67156  51.8675  14.8663 0009030 163.7258 196.4019 15.35004951  4075
